line1,line2,validFromUtcTime
1 00000U 00000E   26001.00000000  .00000000  00000-0  27772-4 0    01,2 00000  88.8985  45.3313 0010041 269.9356  52.6686 13.55307651    02,2026-01-01T00:00:00Z
1 00000U 00000E   26002.00000000  .00000000  00000-0  27772-4 0    02,2 00000  88.8985  45.2193 0010041 267.0255 251.7747 13.55307689    05,2026-01-02T00:00:00Z
